NORAD_CAT_ID,OBJECT_NAME,OBJECT_TYPE,EPOCH,MEAN_MOTION,ECCENTRICITY,INCLINATION,RA_OF_ASC_NODE,ARG_OF_PERICENTER,MEAN_ANOMALY,BSTAR,MEAN_MOTION_DOT,MEAN_MOTION_DDOT,TLE_LINE0,TLE_LINE1,TLE_LINE2,SEMIMAJOR_AXIS,PERIOD,APOGEE,PERIGEE,DECAYED
50843.0,STARLINK-3325,PAYLOAD,2022-04-02 22:00:01,15.08829729,0.0002014,53.2147,149.0474,34.1399,139.7719,-0.0028387,-0.00045172,0.0,0 STARLINK-3325,1 50843U 22001AS  22092.91668981 -.00045172  00000-0 -28387-2 0  9999,2 50843  53.2147 149.0474 0002014  34.1399 139.7719 15.08829729  3572,6917.9119999999975,95.438,541.17,538.384,0.0
50843.0,STARLINK-3325,PAYLOAD,2022-04-03 06:00:00,15.08807551,0.0002041,53.2149,147.5513,35.8059,149.6015,-0.00041687,-6.911e-05,0.0,0 STARLINK-3325,1 50843U 22001AS  22093.25001157 -.00006911  00000-0 -41687-3 0  9990,2 50843  53.2149 147.5513 0002041  35.8059 149.6015 15.08807551 14606,6917.98,95.44,541.257,538.433,0.0
50843.0,STARLINK-3325,PAYLOAD,2022-04-03 22:00:00,15.08808573,0.0002095,53.2149,144.5581,34.3733,174.1489,0.0015706,0.00024775,0.0,0 STARLINK-3325,1 50843U 22001AS  22093.91667824  .00024775  00000-0  15706-2 0  9990,2 50843  53.2149 144.5581 0002095  34.3733 174.1489 15.08808573  3601,6917.976,95.44,541.2909999999998,538.3919999999998,0.0
50843.0,STARLINK-3325,PAYLOAD,2022-04-04 06:00:02,15.08840218,0.000215,53.2151,143.0621,36.7591,183.3848,-0.00074255,-0.00012087,0.0,0 STARLINK-3325,1 50843U 22001AS  22094.25002315 -.00012087  00000-0 -74255-3 0  9996,2 50843  53.2151 143.0621 0002150  36.7591 183.3848 15.08840218 14754,6917.88,95.438,541.232,538.257,0.0
50843.0,STARLINK-3325,PAYLOAD,2022-04-04 14:00:01,15.08812427,0.0002356,53.215,141.567,33.1129,198.5633,0.0036114,0.00057615,0.0,0 STARLINK-3325,1 50843U 22001AS  22094.58334491  .00057615  00000-0  36114-2 0  9990,2 50843  53.2150 141.5670 0002356  33.1129 198.5633 15.08812427  3621,6917.965,95.439,541.46,538.2,0.0
50843.0,STARLINK-3325,PAYLOAD,2022-04-04 22:00:00,15.08838919,0.0002164,53.2151,140.0686,35.8886,207.3902,0.0021976999999999,0.00034861,0.0,0 STARLINK-3325,1 50843U 22001AS  22094.91667824  .00034861  00000-0  21977-2 0  9995,2 50843  53.2151 140.0686 0002164  35.8886 207.3902 15.08838919  3610,6917.884,95.438,541.246,538.252,0.0
50843.0,STARLINK-3325,PAYLOAD,2022-04-05 00:00:00,15.08830882,0.0002128,53.215,139.6943,37.2818,298.9022,0.0037783,0.00060345,0.0,0 STARLINK-3325,1 50843U 22001AS  22095.00001157  .00060345  00000-0  37783-2 0  9995,2 50843  53.2150 139.6943 0002128  37.2818 298.9022 15.08830882 14870,6917.908,95.438,541.245,538.3009999999998,0.0
50843.0,STARLINK-3325,PAYLOAD,2022-04-05 14:00:01,15.08831522,0.0002299,53.2151,137.0774,30.9456,235.6191,0.00078657,0.0001225,0.0,0 STARLINK-3325,1 50843U 22001AS  22095.58335648  .00012250  00000-0  78657-3 0  9991,2 50843  53.2151 137.0774 0002299  30.9456 235.6191 15.08831522  3620,6917.906,95.438,541.362,538.181,0.0
50843.0,STARLINK-3325,PAYLOAD,2022-04-05 16:00:00,15.08856425,0.0002262,53.2149,136.7028,30.41,328.9833,-0.0027633,-0.00044019,0.0,0 STARLINK-3325,1 50843U 22001AS  22095.66667824 -.00044019  00000-0 -27633-2 0  9991,2 50843  53.2149 136.7028 0002262  30.4100 328.9833 15.08856425 14974,6917.83,95.437,541.26,538.13,0.0
50843.0,STARLINK-3325,PAYLOAD,2022-04-05 22:00:00,15.08807739,0.0002057,53.2153,135.5792,32.4835,245.61900000000003,0.0019912,0.00031516,0.0,0 STARLINK-3325,1 50843U 22001AS  22095.91667824  .00031516  00000-0  19912-2 0  9996,2 50843  53.2153 135.5792 0002057  32.4835 245.6190 15.08807739  3617,6917.979,95.44,541.2669999999998,538.4209999999998,0.0
50843.0,STARLINK-3325,PAYLOAD,2022-04-06 06:00:02,15.0884455,0.0002117,53.2155,134.0835,33.7992,255.9327,-0.0012433,-0.00020024,0.0,0 STARLINK-3325,1 50843U 22001AS  22096.25002315 -.00020024  00000-0 -12433-2 0  9997,2 50843  53.2155 134.0835 0002117  33.7992 255.9327 15.08844550 15066,6917.866,95.437,541.196,538.2669999999998,0.0
50843.0,STARLINK-3325,PAYLOAD,2022-04-06 14:00:01,15.08820517,0.0002282,53.2151,132.5881,30.7229,270.5403,0.0025032,0.00039755,0.0,0 STARLINK-3325,1 50843U 22001AS  22096.58334491  .00039755  00000-0  25032-2 0  9994,2 50843  53.2151 132.5881 0002282  30.7229 270.5403 15.08820517  3599,6917.94,95.439,541.384,538.226,0.0
50843.0,STARLINK-3325,PAYLOAD,2022-04-06 22:00:00,15.08822962,0.0002068,53.2152,131.09,34.7945,278.0681,0.0027544,0.00043801,0.0,0 STARLINK-3325,1 50843U 22001AS  22096.91667824  .00043801  00000-0  27544-2 0  9997,2 50843  53.2152 131.0900 0002068  34.7945 278.0681 15.08822962 15160,6917.932,95.439,541.2280000000002,538.367,0.0
50843.0,STARLINK-3325,PAYLOAD,2022-04-07 14:00:01,15.08844565,0.000226,53.2149,128.0989,30.7069,305.3575,-0.00079881,-0.00012981,0.0,0 STARLINK-3325,1 50843U 22001AS  22097.58334491 -.00012981  00000-0 -79881-3 0  9991,2 50843  53.2149 128.0989 0002260  30.7069 305.3575 15.08844565  3599,6917.866,95.437,541.295,538.168,0.0
50843.0,STARLINK-3325,PAYLOAD,2022-04-07 20:00:01,15.08831395,0.000208,53.2151,126.9751,33.0571,221.7147,0.00027875,4.15e-05,0.0,0 STARLINK-3325,1 50843U 22001AS  22097.83334491  .00004150  00000-0  27875-3 0  9992,2 50843  53.2151 126.9751 0002080  33.0571 221.7147 15.08831395 15305,6917.906999999997,95.438,541.211,538.3330000000002,0.0
50843.0,STARLINK-3325,PAYLOAD,2022-04-07 22:00:00,15.08821578,0.0002141,53.2162,126.5956,32.4927,315.1861,-0.00087476,-0.00014176,0.0,0 STARLINK-3325,1 50843U 22001AS  22097.91667824 -.00014176  00000-0 -87476-3 0  9994,2 50843  53.2162 126.5956 0002141  32.4927 315.1861 15.08821578  3564,6917.937,95.439,541.283,538.321,0.0
50843.0,STARLINK-3325,PAYLOAD,2022-04-08 14:00:03,15.0885576,0.0002258,53.2147,123.6096,30.5702,340.4189,-0.0010333,-0.00016703,0.0,0 STARLINK-3325,1 50843U 22001AS  22098.58336806 -.00016703  00000-0 -10333-2 0  9996,2 50843  53.2147 123.6096 0002258  30.5702 340.4189 15.08855760  3608,6917.831999999999,95.437,541.259,538.135,0.0
50843.0,STARLINK-3325,PAYLOAD,2022-04-08 22:00:00,15.08805141,0.000202,53.2147,122.1116,33.5244,348.957,0.0032635,0.00051985,0.0,0 STARLINK-3325,1 50843U 22001AS  22098.91667824  .00051985  00000-0  32635-2 0  9998,2 50843  53.2147 122.1116 0002020  33.5244 348.9570 15.08805141 15468,6917.986999999999,95.44,541.249,538.455,0.0
50843.0,STARLINK-3325,PAYLOAD,2022-04-09 14:00:01,15.088421300000002,0.0002285,53.2147,119.1205,29.1766,16.4605,-0.0019556,-0.0003128,0.0,0 STARLINK-3325,1 50843U 22001AS  22099.58334491 -.00031280  00000-0 -19556-2 0  9998,2 50843  53.2147 119.1205 0002285  29.1766  16.4605 15.08842130  3604,6917.874,95.437,541.32,538.158,0.0
50843.0,STARLINK-3325,PAYLOAD,2022-04-09 16:00:00,15.08851121,0.0002229,53.2148,118.7459,30.3146,108.2202,-0.0034913,-0.00055444,0.0,0 STARLINK-3325,1 50843U 22001AS  22099.66667824 -.00055444  00000-0 -34913-2 0  9998,2 50843  53.2148 118.7459 0002229  30.3146 108.2202 15.08851121 15577,6917.846,95.437,541.253,538.169,0.0
50843.0,STARLINK-3325,PAYLOAD,2022-04-09 22:00:00,15.08794165,0.0002057,53.2149,117.6224,32.3581,24.8775,0.0032578,0.00051877,0.0,0 STARLINK-3325,1 50843U 22001AS  22099.91667824  .00051877  00000-0  32578-2 0  9995,2 50843  53.2149 117.6224 0002057  32.3581  24.8775 15.08794165  3603,6918.02,95.44,541.309,538.462,0.0
50843.0,STARLINK-3325,PAYLOAD,2022-04-10 06:00:02,15.08837852,0.0002253,53.2151,116.1273,32.7626,36.0964,-0.0014925,-0.00023962,0.0,0 STARLINK-3325,1 50843U 22001AS  22100.25002315 -.00023962  00000-0 -14925-2 0  9995,2 50843  53.2151 116.1273 0002253  32.7626  36.0964 15.08837852 15661,6917.887,95.438,541.311,538.193,0.0
50843.0,STARLINK-3325,PAYLOAD,2022-04-10 14:00:01,15.0883131,0.0002367,53.215,114.6313,30.0912,50.2863,0.00065307,0.00010118,0.0,0 STARLINK-3325,1 50843U 22001AS  22100.58334491  .00010118  00000-0  65307-3 0  9992,2 50843  53.2150 114.6313 0002367  30.0912  50.2863 15.08831310  3603,6917.906999999997,95.438,541.409,538.134,0.0
50843.0,STARLINK-3325,PAYLOAD,2022-04-10 20:00:01,15.08825954,0.0002198,53.2154,113.5076,33.8314,325.2502,0.0022049,0.00034965,0.0,0 STARLINK-3325,1 50843U 22001AS  22100.83334491  .00034965  00000-0  22049-2 0  9991,2 50843  53.2154 113.5076 0002198  33.8314 325.2502 15.08825954 15751,6917.9230000000025,95.438,541.309,538.268,0.0
50843.0,STARLINK-3325,PAYLOAD,2022-04-10 22:00:00,15.08821543,0.0002178,53.2152,113.1332,34.5012,57.4803,0.0033744,0.00053799,0.0,0 STARLINK-3325,1 50843U 22001AS  22100.91667824  .00053799  00000-0  33744-2 0  9999,2 50843  53.2152 113.1332 0002178  34.5012  57.4803 15.08821543  3600,6917.937,95.439,541.309,538.295,0.0
50843.0,STARLINK-3325,PAYLOAD,2022-04-11 12:00:00,15.08843141,0.0002448,53.2154,110.5165,31.1324,351.1446,0.00093254,0.00014586,0.0,0 STARLINK-3325,1 50843U 22001AS  22101.50001157  .00014586  00000-0  93254-3 0  9990,2 50843  53.2154 110.5165 0002448  31.1324 351.1446 15.08843141 15851,6917.871,95.437,541.429,538.0419999999998,0.0
50843.0,STARLINK-3325,PAYLOAD,2022-04-11 14:00:01,15.08868517,0.000244,53.2153,110.1419,31.2246,83.9472,-0.0026862,-0.00042821,0.0,0 STARLINK-3325,1 50843U 22001AS  22101.58334491 -.00042821  00000-0 -26862-2 0  9993,2 50843  53.2153 110.1419 0002440  31.2246  83.9472 15.08868517  3607,6917.793000000002,95.436,541.346,537.97,0.0
50843.0,STARLINK-3325,PAYLOAD,2022-04-11 22:00:00,15.08810704,0.0002211,53.2156,108.6438,33.8379,92.9531,0.0028227,0.00044886,0.0,0 STARLINK-3325,1 50843U 22001AS  22101.91667824  .00044886  00000-0  28227-2 0  9997,2 50843  53.2156 108.6438 0002211  33.8379  92.9531 15.08810704  3593,6917.97,95.439,541.364,538.305,0.0
50843.0,STARLINK-3325,PAYLOAD,2022-04-12 04:00:00,15.08851,0.0002331,53.2159,107.5226,34.0152,11.4511,-0.0017265999999999,-0.00027671,0.0,0 STARLINK-3325,1 50843U 22001AS  22102.16667824 -.00027671  00000-0 -17266-2 0  9991,2 50843  53.2159 107.5226 0002331  34.0152  11.4511 15.08851000 15955,6917.847,95.437,541.3240000000002,538.099,0.0
